OBJECT_NAME,OBJECT_ID,EPOCH,MEAN_MOTION,ECCENTRICITY,INCLINATION,RA_OF_ASC_NODE,ARG_OF_PERICENTER,MEAN_ANOMALY,EPHEMERIS_TYPE,CLASSIFICATION_TYPE,NORAD_CAT_ID,ELEMENT_SET_NO,REV_AT_EPOCH,BSTAR,MEAN_MOTION_DOT,MEAN_MOTION_DDOT
STARLINK-31467,2024-049E,2026-05-17T21:58:15.203136,15.27576399,.00011996,43.0035,112.5544,269.8416,90.2299,0,U,59235,999,12299,-.3902657E-5,-.369E-5,0
STARLINK-31444,2024-049F,2026-05-18T03:06:29.263968,15.35907807,.0007852,43.0021,39.3831,214.3245,145.7103,0,U,59236,999,12382,.32938E-3,.11503E-3,0
STARLINK-31505,2024-049G,2026-05-17T23:41:39.923232,15.27573584,.000182,43.0041,112.2410,273.4477,86.6167,0,U,59237,999,12300,.60333E-5,-.96E-6,0
STARLINK-31494,2024-049H,2026-05-18T05:26:50.056800,15.27570398,.000085,43.0018,110.5932,272.5892,87.4863,0,U,59238,999,12304,-.25951E-4,-.976E-5,0
STARLINK-31303,2024-049J,2026-05-18T05:08:32.858880,15.27648852,.0001051,43.0044,100.0508,246.2361,113.8380,0,U,59239,999,12316,-.61521E-3,-.17188E-3,0
STARLINK-31408,2024-049K,2026-05-18T04:50:02.610240,15.27584926,.0001481,43.0026,111.2599,274.4176,85.6507,0,U,59240,999,12303,.55875E-4,.1276E-4,0
STARLINK-31427,2024-049L,2026-05-18T04:55:35.230368,15.27572314,.000098,43.0022,111.2579,270.7243,89.3497,0,U,59241,999,12303,-.24223E-4,-.928E-5,0
STARLINK-31423,2024-049M,2026-05-18T04:46:20.088768,15.27574161,.0001251,43.0024,111.2345,261.1722,98.8988,0,U,59242,999,12303,-.39053E-6,-.273E-5,0
STARLINK-31433,2024-049N,2026-05-17T23:26:51.495360,15.27583939,.0001347,43.0034,112.1561,264.9314,95.1384,0,U,59243,999,12300,-.17786E-3,-.5154E-4,0
STARLINK-31285,2024-049P,2026-05-17T07:23:05.592768,15.27569009,.00005818,43.0012,115.7326,277.4428,82.6357,0,U,59244,999,12289,-.52563251E-4,-.1707E-4,0
STARLINK-31284,2024-049R,2026-05-17T21:47:08.965824,15.27573508,.00009159,43.0030,112.4966,275.7455,84.3292,0,U,59246,999,12298,-.126271E-6,-.265E-5,0
STARLINK-31424,2024-049S,2026-05-18T04:17:25.126656,15.27577565,.000142,43.0038,107.6205,272.0584,88.0106,0,U,59247,999,12306,.4129E-5,-.149E-5,0
STARLINK-31405,2024-049T,2026-05-18T04:35:14.119296,15.27571439,.0001397,43.0034,111.1772,272.4129,87.6563,0,U,59248,999,12302,-.20214E-4,-.818E-5,0
STARLINK-31426,2024-049U,2026-05-18T04:40:47.156736,15.27596390,.0001116,43.0031,111.1991,234.5775,125.4973,0,U,59249,999,12302,-.23143E-3,-.6628E-4,0
STARLINK-31407,2024-049V,2026-05-17T22:03:50.042016,15.27564279,.00010964,43.0014,101.3317,262.6054,97.4673,0,U,59250,999,12311,.4892353E-4,.1084E-4,0
STARLINK-31393,2024-049X,2026-05-18T04:35:57.685632,15.27563953,.0000933,43.0028,96.4663,273.6407,86.4338,0,U,59252,999,12320,-.36356E-4,-.1262E-4,0
STARLINK-31425,2024-049Y,2026-05-17T23:15:45.939744,15.27556360,.0000478,43.0026,112.0988,260.2083,99.8715,0,U,59253,999,12299,-.24027E-4,-.922E-5,0
STARLINK-31659,2024-050A,2026-05-17T15:09:44.186688,15.34375552,.00011477,53.1604,217.9522,81.3270,278.7862,0,U,59254,999,12229,-.28255889E-4,-.133E-4,0
STARLINK-31629,2024-050B,2026-05-17T23:02:28.027104,15.30187955,.000125,53.1612,219.2811,84.8477,275.2666,0,U,59255,999,12115,-.19389E-4,-.933E-5,0
STARLINK-31652,2024-050C,2026-05-17T22:44:12.009408,15.30194798,.00010739,53.1582,219.2008,94.0567,266.0557,0,U,59256,999,12115,.18055617E-4,.176E-5,0
STARLINK-31637,2024-050E,2026-05-18T04:51:18.662976,15.30194529,.0001008,53.1605,217.9486,94.3131,265.7985,0,U,59258,999,12119,.19256E-4,.211E-5,0
STARLINK-31506,2024-050F,2026-05-17T22:57:54.254016,15.30189054,.00012618,53.1604,219.2602,90.0133,270.1012,0,U,59259,999,12115,-.3563802E-5,-.465E-5,0
STARLINK-31639,2024-050H,2026-05-18T04:55:53.467680,15.30115517,.0001823,53.1606,217.9685,119.8724,240.2458,0,U,59261,999,12119,.39354E-3,.11284E-3,0
STARLINK-31598,2024-050K,2026-05-17T22:15:31.039776,15.30188205,.00010647,53.1591,219.7660,101.6110,258.5011,0,U,59263,999,12114,-.23306984E-4,-.1049E-4,0
STARLINK-31645,2024-050L,2026-05-18T05:29:18.351168,15.30204533,.0000898,53.1587,218.1083,89.4237,270.6866,0,U,59264,999,12119,.35093E-3,.1005E-3,0
STARLINK-31646,2024-050M,2026-05-17T15:31:57.578016,15.30184026,.00008492,53.1584,220.8751,58.0793,302.0291,0,U,59265,999,12110,-.33221644E-4,-.1342E-4,0
STARLINK-31648,2024-050N,2026-05-18T05:04:59.748096,15.30192151,.000082,53.1604,218.0047,115.6913,244.4172,0,U,59266,999,12119,.18995E-4,.204E-5,0
STARLINK-31579,2024-050P,2026-05-17T12:10:10.583616,15.30178642,.00010886,53.1604,221.4293,79.2537,280.8587,0,U,59267,999,12108,-.14854462E-4,-.799E-5,0
STARLINK-31627,2024-050Q,2026-05-18T04:22:36.382656,15.30201375,.000145,53.1579,218.5304,111.8314,248.2841,0,U,59268,999,12118,.42369E-3,.1221E-3,0
STARLINK-31609,2024-050R,2026-05-18T02:25:46.044768,15.30192718,.0001281,53.1602,218.7326,84.7066,275.4081,0,U,59269,999,12117,-.23782E-4,-.1063E-4,0
