STARLINK-31467          
1 59235U 24049E   26137.91545374 -.00000369  00000+0 -39027-5 0  9995
2 59235  43.0035 112.5544 0001199 269.8416  90.2299 15.27576399122997
STARLINK-31444          
1 59236U 24049F   26138.12950537  .00011503  00000+0  32938-3 0  9993
2 59236  43.0021  39.3831 0007852 214.3245 145.7103 15.35907807123829
STARLINK-31505          
1 59237U 24049G   26137.98726763 -.00000096  00000+0  60333-5 0  9997
2 59237  43.0041 112.2410 0001820 273.4477  86.6167 15.27573584123003
STARLINK-31494          
1 59238U 24049H   26138.22696825 -.00000976  00000+0 -25951-4 0  9995
2 59238  43.0018 110.5932 0000850 272.5892  87.4863 15.27570398123047
STARLINK-31303          
1 59239U 24049J   26138.21426920 -.00017188  00000+0 -61521-3 0  9997
2 59239  43.0044 100.0508 0001051 246.2361 113.8380 15.27648852123165
STARLINK-31408          
1 59240U 24049K   26138.20141910  .00001276  00000+0  55875-4 0  9996
2 59240  43.0026 111.2599 0001481 274.4176  85.6507 15.27584926123039
STARLINK-31427          
1 59241U 24049L   26138.20526887 -.00000928  00000+0 -24223-4 0  9995
2 59241  43.0022 111.2579 0000980 270.7243  89.3497 15.27572314123038
STARLINK-31423          
1 59242U 24049M   26138.19884362 -.00000273  00000+0 -39053-6 0  9991
2 59242  43.0024 111.2345 0001251 261.1722  98.8988 15.27574161123032
STARLINK-31433          
1 59243U 24049N   26137.97698490 -.00005154  00000+0 -17786-3 0  9991
2 59243  43.0034 112.1561 0001347 264.9314  95.1384 15.27583939123008
STARLINK-31285          
1 59244U 24049P   26137.30770362 -.00001707  00000+0 -52563-4 0  9991
2 59244  43.0012 115.7326 0000581 277.4428  82.6357 15.27569009122896
STARLINK-31284          
1 59246U 24049R   26137.90774266 -.00000265  00000+0 -12627-6 0  9993
2 59246  43.0030 112.4966 0000915 275.7455  84.3292 15.27573508122980
STARLINK-31424          
1 59247U 24049S   26138.17876304 -.00000149  00000+0  41290-5 0  9997
2 59247  43.0038 107.6205 0001420 272.0584  88.0106 15.27577565123068
STARLINK-31405          
1 59248U 24049T   26138.19113564 -.00000818  00000+0 -20214-4 0  9998
2 59248  43.0034 111.1772 0001397 272.4129  87.6563 15.27571439123028
STARLINK-31426          
1 59249U 24049U   26138.19499024 -.00006628  00000+0 -23143-3 0  9995
2 59249  43.0031 111.1991 0001116 234.5775 125.4973 15.27596390123023
STARLINK-31407          
1 59250U 24049V   26137.91932919  .00001084  00000+0  48924-4 0  9995
2 59250  43.0014 101.3317 0001096 262.6054  97.4673 15.27564279123114
STARLINK-31393          
1 59252U 24049X   26138.19163988 -.00001262  00000+0 -36356-4 0  9996
2 59252  43.0028  96.4663 0000933 273.6407  86.4338 15.27563953123206
STARLINK-31425          
1 59253U 24049Y   26137.96928171 -.00000922  00000+0 -24027-4 0  9998
2 59253  43.0026 112.0988 0000478 260.2083  99.8715 15.27556360122992
STARLINK-31659          
1 59254U 24050A   26137.63176142 -.00001330  00000+0 -28256-4 0  9990
2 59254  53.1604 217.9522 0001147  81.3270 278.7862 15.34375552122294
STARLINK-31629          
1 59255U 24050B   26137.96004661 -.00000933  00000+0 -19389-4 0  9998
2 59255  53.1612 219.2811 0001250  84.8477 275.2666 15.30187955121154
STARLINK-31652          
1 59256U 24050C   26137.94736122  .00000176  00000+0  18056-4 0  9998
2 59256  53.1582 219.2008 0001073  94.0567 266.0557 15.30194798121155
STARLINK-31637          
1 59258U 24050E   26138.20229934  .00000211  00000+0  19256-4 0  9991
2 59258  53.1605 217.9486 0001008  94.3131 265.7985 15.30194529121193
STARLINK-31506          
1 59259U 24050F   26137.95687794 -.00000465  00000+0 -35638-5 0  9991
2 59259  53.1604 219.2602 0001261  90.0133 270.1012 15.30189054121158
STARLINK-31639          
1 59261U 24050H   26138.20547995  .00011284  00000+0  39354-3 0  9997
2 59261  53.1606 217.9685 0001823 119.8724 240.2458 15.30115517121198
STARLINK-31598          
1 59263U 24050K   26137.92744259 -.00001049  00000+0 -23307-4 0  9991
2 59263  53.1591 219.7660 0001064 101.6110 258.5011 15.30188205121147
STARLINK-31645          
1 59264U 24050L   26138.22868462  .00010050  00000+0  35093-3 0  9993
2 59264  53.1587 218.1083 0000898  89.4237 270.6866 15.30204533121193
STARLINK-31646          
1 59265U 24050M   26137.64719419 -.00001342  00000+0 -33222-4 0  9995
2 59265  53.1584 220.8751 0000849  58.0793 302.0291 15.30184026121105
STARLINK-31648          
1 59266U 24050N   26138.21180264  .00000204  00000+0  18995-4 0  9994
2 59266  53.1604 218.0047 0000820 115.6913 244.4172 15.30192151121193
STARLINK-31579          
1 59267U 24050P   26137.50706694 -.00000799  00000+0 -14854-4 0  9998
2 59267  53.1604 221.4293 0001088  79.2537 280.8587 15.30178642121080
STARLINK-31627          
1 59268U 24050Q   26138.18236554  .00012210  00000+0  42369-3 0  9997
2 59268  53.1579 218.5304 0001450 111.8314 248.2841 15.30201375121183
STARLINK-31609          
1 59269U 24050R   26138.10122737 -.00001063  00000+0 -23782-4 0  9992
2 59269  53.1602 218.7326 0001281  84.7066 275.4081 15.30192718121178
